[{"OBJECT_NAME":"SAUDISAT 1C (SO-50)","OBJECT_ID":"2002-058C","EPOCH":"2026-03-05T10:27:37.340640","MEAN_MOTION":14.82762878,"ECCENTRICITY":0.0075171,"INCLINATION":64.5518,"RA_OF_ASC_NODE":89.9288,"ARG_OF_PERICENTER":281.476,"MEAN_ANOMALY":77.7911,"EPHEMERIS_TYPE":0,"CLASSIFICATION_TYPE":"U","NORAD_CAT_ID":27607,"ELEMENT_SET_NO":999,"REV_AT_EPOCH":24907,"BSTAR":0.00031026,"MEAN_MOTION_DOT":2.486e-5,"MEAN_MOTION_DDOT":0},{"OBJECT_NAME":"SAUDISAT 2","OBJECT_ID":"2004-025F","EPOCH":"2026-03-05T13:55:54.022368","MEAN_MOTION":14.56612328,"ECCENTRICITY":0.0023549,"INCLINATION":98.5496,"RA_OF_ASC_NODE":61.8993,"ARG_OF_PERICENTER":254.3683,"MEAN_ANOMALY":105.4915,"EPHEMERIS_TYPE":0,"CLASSIFICATION_TYPE":"U","NORAD_CAT_ID":28371,"ELEMENT_SET_NO":999,"REV_AT_EPOCH":15066,"BSTAR":0.00012825,"MEAN_MOTION_DOT":5.24e-6,"MEAN_MOTION_DDOT":0},{"OBJECT_NAME":"SAUDISAT 3","OBJECT_ID":"2007-012B","EPOCH":"2026-03-05T14:54:16.659360","MEAN_MOTION":14.71349414,"ECCENTRICITY":0.0014284,"INCLINATION":98.1344,"RA_OF_ASC_NODE":15.0276,"ARG_OF_PERICENTER":191.8577,"MEAN_ANOMALY":168.2295,"EPHEMERIS_TYPE":0,"CLASSIFICATION_TYPE":"U","NORAD_CAT_ID":31118,"ELEMENT_SET_NO":999,"REV_AT_EPOCH":1251,"BSTAR":9.9427e-5,"MEAN_MOTION_DOT":5.65e-6,"MEAN_MOTION_DDOT":0},{"OBJECT_NAME":"PISAT","OBJECT_ID":"2016-059B","EPOCH":"2026-03-05T16:04:11.157312","MEAN_MOTION":14.6876231,"ECCENTRICITY":0.0029219,"INCLINATION":97.8189,"RA_OF_ASC_NODE":69.5857,"ARG_OF_PERICENTER":173.4346,"MEAN_ANOMALY":186.7249,"EPHEMERIS_TYPE":0,"CLASSIFICATION_TYPE":"U","NORAD_CAT_ID":41784,"ELEMENT_SET_NO":999,"REV_AT_EPOCH":50454,"BSTAR":0.00027801,"MEAN_MOTION_DOT":1.584e-5,"MEAN_MOTION_DDOT":0},{"OBJECT_NAME":"FLYING LAPTOP","OBJECT_ID":"2017-042G","EPOCH":"2026-03-05T18:38:41.454816","MEAN_MOTION":15.00486943,"ECCENTRICITY":0.0018793,"INCLINATION":97.4261,"RA_OF_ASC_NODE":224.6256,"ARG_OF_PERICENTER":108.1757,"MEAN_ANOMALY":252.1516,"EPHEMERIS_TYPE":0,"CLASSIFICATION_TYPE":"U","NORAD_CAT_ID":42831,"ELEMENT_SET_NO":999,"REV_AT_EPOCH":47094,"BSTAR":0.0003573,"MEAN_MOTION_DOT":4.46e-5,"MEAN_MOTION_DDOT":0},{"OBJECT_NAME":"SALSAT","OBJECT_ID":"2020-068K","EPOCH":"2026-03-05T13:08:47.110272","MEAN_MOTION":15.28084035,"ECCENTRICITY":0.0008579,"INCLINATION":97.8852,"RA_OF_ASC_NODE":61.4374,"ARG_OF_PERICENTER":314.2144,"MEAN_ANOMALY":45.8389,"EPHEMERIS_TYPE":0,"CLASSIFICATION_TYPE":"U","NORAD_CAT_ID":46495,"ELEMENT_SET_NO":999,"REV_AT_EPOCH":29952,"BSTAR":0.00043846,"MEAN_MOTION_DOT":0.00011945,"MEAN_MOTION_DDOT":0}]
